{
  "type": "FeatureCollection",
  "features": [
    {
      "type": "Feature",
      "properties": {
        "norad_id": 25590,
        "name": "COSMOS 2361",
        "group": "musson",
        "lat": 35.59275296411883,
        "lon": -13.899162684818956,
        "alt_km": 1003.1055122072094,
        "timestamp": "2025-12-16T21:38:57.444214+00:00",
        "meta_object_name": "COSMOS 2361",
        "meta_object_id": "1998-076A",
        "meta_epoch": "2025-12-16T08:03:41.255424",
        "meta_mean_motion": 13.7321795,
        "meta_eccentricity": 0.00300849,
        "meta_inclination": 82.934,
        "meta_ra_of_asc_node": 341.4264,
        "meta_arg_of_pericenter": 255.1805,
        "meta_mean_anomaly": 223.3208,
        "meta_ephemeris_type": 0,
        "meta_classification_type": "U",
        "meta_norad_cat_id": 25590,
        "meta_element_set_no": 999,
        "meta_rev_at_epoch": 35160,
        "meta_bstar": 7.3203738e-05,
        "meta_mean_motion_dot": 8.3e-07,
        "meta_mean_motion_ddot": 0,
        "tle_line1": "1 25590U 98076A   25350.33589416  .00000083  00000+0  73204-4 0  9995",
        "tle_line2": "2 25590  82.9340 341.4264 0030084 255.1805 223.3208 13.73217950351607"
      },
      "geometry": {
        "type": "Point",
        "coordinates": [
          -13.899162684818956,
          35.59275296411883
        ]
      }
    },
    {
      "type": "Feature",
      "properties": {
        "norad_id": 26818,
        "name": "COSMOS 2378",
        "group": "musson",
        "lat": 57.35478998965001,
        "lon": 165.46455363274222,
        "alt_km": 971.4423350758698,
        "timestamp": "2025-12-16T21:38:57.444235+00:00",
        "meta_object_name": "COSMOS 2378",
        "meta_object_id": "2001-023A",
        "meta_epoch": "2025-12-16T02:07:21.547776",
        "meta_mean_motion": 13.74142251,
        "meta_eccentricity": 0.00325987,
        "meta_inclination": 82.9272,
        "meta_ra_of_asc_node": 357.2417,
        "meta_arg_of_pericenter": 195.4369,
        "meta_mean_anomaly": 224.2216,
        "meta_ephemeris_type": 0,
        "meta_classification_type": "U",
        "meta_norad_cat_id": 26818,
        "meta_element_set_no": 999,
        "meta_rev_at_epoch": 22969,
        "meta_bstar": 4.9743643e-05,
        "meta_mean_motion_dot": 6.2e-07,
        "meta_mean_motion_ddot": 0,
        "tle_line1": "1 26818U 01023A   25350.08844384  .00000062  00000+0  49744-4 0  9994",
        "tle_line2": "2 26818  82.9272 357.2417 0032598 195.4369 224.2216 13.74142251229697"
      },
      "geometry": {
        "type": "Point",
        "coordinates": [
          165.46455363274222,
          57.35478998965001
        ]
      }
    },
    {
      "type": "Feature",
      "properties": {
        "norad_id": 27436,
        "name": "COSMOS 2389",
        "group": "musson",
        "lat": -16.164760327362167,
        "lon": -58.15207747633314,
        "alt_km": 971.267609906009,
        "timestamp": "2025-12-16T21:38:57.444249+00:00",
        "meta_object_name": "COSMOS 2389",
        "meta_object_id": "2002-026A",
        "meta_epoch": "2025-12-16T08:33:08.708256",
        "meta_mean_motion": 13.75155108,
        "meta_eccentricity": 0.00475287,
        "meta_inclination": 82.9505,
        "meta_ra_of_asc_node": 304.3072,
        "meta_arg_of_pericenter": 50.9172,
        "meta_mean_anomaly": 113.3894,
        "meta_ephemeris_type": 0,
        "meta_classification_type": "U",
        "meta_norad_cat_id": 27436,
        "meta_element_set_no": 999,
        "meta_rev_at_epoch": 18198,
        "meta_bstar": 5.4608841e-05,
        "meta_mean_motion_dot": 6.8e-07,
        "meta_mean_motion_ddot": 0,
        "tle_line1": "1 27436U 02026A   25350.35635079  .00000068  00000+0  54609-4 0  9996",
        "tle_line2": "2 27436  82.9505 304.3072 0047528  50.9172 113.3894 13.75155108181984"
      },
      "geometry": {
        "type": "Point",
        "coordinates": [
          -58.15207747633314,
          -16.164760327362167
        ]
      }
    },
    {
      "type": "Feature",
      "properties": {
        "norad_id": 27818,
        "name": "COSMOS 2398",
        "group": "musson",
        "lat": -74.124118253727,
        "lon": 115.4296696303532,
        "alt_km": 1020.1905124435907,
        "timestamp": "2025-12-16T21:38:57.444260+00:00",
        "meta_object_name": "COSMOS 2398",
        "meta_object_id": "2003-023A",
        "meta_epoch": "2025-12-16T06:57:24.634944",
        "meta_mean_motion": 13.72386086,
        "meta_eccentricity": 0.0032684,
        "meta_inclination": 82.9484,
        "meta_ra_of_asc_node": 270.0822,
        "meta_arg_of_pericenter": 102.2993,
        "meta_mean_anomaly": 10.3976,
        "meta_ephemeris_type": 0,
        "meta_classification_type": "U",
        "meta_norad_cat_id": 27818,
        "meta_element_set_no": 999,
        "meta_rev_at_epoch": 12865,
        "meta_bstar": 4.0725864e-05,
        "meta_mean_motion_dot": 5.3e-07,
        "meta_mean_motion_ddot": 0,
        "tle_line1": "1 27818U 03023A   25350.28986846  .00000053  00000+0  40726-4 0  9990",
        "tle_line2": "2 27818  82.9484 270.0822 0032684 102.2993  10.3976 13.72386086128655"
      },
      "geometry": {
        "type": "Point",
        "coordinates": [
          115.4296696303532,
          -74.124118253727
        ]
      }
    },
    {
      "type": "Feature",
      "properties": {
        "norad_id": 28380,
        "name": "COSMOS 2407",
        "group": "musson",
        "lat": 29.16145616209186,
        "lon": 25.857290480253145,
        "alt_km": 984.0876329104585,
        "timestamp": "2025-12-16T21:38:57.444271+00:00",
        "meta_object_name": "COSMOS 2407",
        "meta_object_id": "2004-028A",
        "meta_epoch": "2025-12-16T04:02:38.304960",
        "meta_mean_motion": 13.76314066,
        "meta_eccentricity": 0.00401996,
        "meta_inclination": 82.9602,
        "meta_ra_of_asc_node": 210.3541,
        "meta_arg_of_pericenter": 45.5216,
        "meta_mean_anomaly": 72.022,
        "meta_ephemeris_type": 0,
        "meta_classification_type": "U",
        "meta_norad_cat_id": 28380,
        "meta_element_set_no": 999,
        "meta_rev_at_epoch": 7470,
        "meta_bstar": 6.740412e-05,
        "meta_mean_motion_dot": 8.2e-07,
        "meta_mean_motion_ddot": 0,
        "tle_line1": "1 28380U 04028A   25350.16849890  .00000082  00000+0  67404-4 0  9999",
        "tle_line2": "2 28380  82.9602 210.3541 0040199  45.5216  72.0220 13.76314066 74700"
      },
      "geometry": {
        "type": "Point",
        "coordinates": [
          25.857290480253145,
          29.16145616209186
        ]
      }
    },
    {
      "type": "Feature",
      "properties": {
        "norad_id": 28521,
        "name": "COSMOS 2414",
        "group": "musson",
        "lat": -47.017214783650346,
        "lon": 9.144129197228663,
        "alt_km": 947.5435816735926,
        "timestamp": "2025-12-16T21:38:57.444282+00:00",
        "meta_object_name": "COSMOS 2414",
        "meta_object_id": "2005-002A",
        "meta_epoch": "2025-12-16T06:43:09.026112",
        "meta_mean_motion": 13.87903467,
        "meta_eccentricity": 0.00410846,
        "meta_inclination": 82.9488,
        "meta_ra_of_asc_node": 181.9829,
        "meta_arg_of_pericenter": 129.8078,
        "meta_mean_anomaly": 230.6714,
        "meta_ephemeris_type": 0,
        "meta_classification_type": "U",
        "meta_norad_cat_id": 28521,
        "meta_element_set_no": 999,
        "meta_rev_at_epoch": 5844,
        "meta_bstar": 7.101415e-05,
        "meta_mean_motion_dot": 1.01e-06,
        "meta_mean_motion_ddot": 0,
        "tle_line1": "1 28521U 05002A   25350.27996558  .00000101  00000+0  71014-4 0  9999",
        "tle_line2": "2 28521  82.9488 181.9829 0041084 129.8078 230.6714 13.87903467 58441"
      },
      "geometry": {
        "type": "Point",
        "coordinates": [
          9.144129197228663,
          -47.017214783650346
        ]
      }
    },
    {
      "type": "Feature",
      "properties": {
        "norad_id": 32052,
        "name": "COSMOS 2429",
        "group": "musson",
        "lat": 9.466285754257548,
        "lon": 159.0632058217866,
        "alt_km": 1005.926369393248,
        "timestamp": "2025-12-16T21:38:57.444292+00:00",
        "meta_object_name": "COSMOS 2429",
        "meta_object_id": "2007-038A",
        "meta_epoch": "2025-12-16T01:37:01.606944",
        "meta_mean_motion": 13.75149736,
        "meta_eccentricity": 0.00390627,
        "meta_inclination": 82.9804,
        "meta_ra_of_asc_node": 340.8554,
        "meta_arg_of_pericenter": 28.7658,
        "meta_mean_anomaly": 331.5641,
        "meta_ephemeris_type": 0,
        "meta_classification_type": "U",
        "meta_norad_cat_id": 32052,
        "meta_element_set_no": 999,
        "meta_rev_at_epoch": 91648,
        "meta_bstar": 6.4640986e-05,
        "meta_mean_motion_dot": 7.7e-07,
        "meta_mean_motion_ddot": 0,
        "tle_line1": "1 32052U 07038A   25350.06737971  .00000077  00000+0  64641-4 0  9993",
        "tle_line2": "2 32052  82.9804 340.8554 0039062  28.7658 331.5641 13.75149736916487"
      },
      "geometry": {
        "type": "Point",
        "coordinates": [
          159.0632058217866,
          9.466285754257548
        ]
      }
    },
    {
      "type": "Feature",
      "properties": {
        "norad_id": 35635,
        "name": "COSMOS 2454",
        "group": "musson",
        "lat": -52.26674266645604,
        "lon": 156.29444428897847,
        "alt_km": 942.1737029020796,
        "timestamp": "2025-12-16T21:38:57.444303+00:00",
        "meta_object_name": "COSMOS 2454",
        "meta_object_id": "2009-039A",
        "meta_epoch": "2025-12-16T05:27:19.705824",
        "meta_mean_motion": 13.89929063,
        "meta_eccentricity": 0.00203802,
        "meta_inclination": 82.9553,
        "meta_ra_of_asc_node": 166.0011,
        "meta_arg_of_pericenter": 64.4558,
        "meta_mean_anomaly": 108.6897,
        "meta_ephemeris_type": 0,
        "meta_classification_type": "U",
        "meta_norad_cat_id": 35635,
        "meta_element_set_no": 999,
        "meta_rev_at_epoch": 83198,
        "meta_bstar": 5.9625632e-05,
        "meta_mean_motion_dot": 8.9e-07,
        "meta_mean_motion_ddot": 0,
        "tle_line1": "1 35635U 09039A   25350.22731141  .00000089  00000+0  59626-4 0  9997",
        "tle_line2": "2 35635  82.9553 166.0011 0020380  64.4558 108.6897 13.89929063831984"
      },
      "geometry": {
        "type": "Point",
        "coordinates": [
          156.29444428897847,
          -52.26674266645604
        ]
      }
    },
    {
      "type": "Feature",
      "properties": {
        "norad_id": 36519,
        "name": "COSMOS 2463",
        "group": "musson",
        "lat": 72.7970241865685,
        "lon": 47.17321667269762,
        "alt_km": 1010.4474138552605,
        "timestamp": "2025-12-16T21:38:57.444313+00:00",
        "meta_object_name": "COSMOS 2463",
        "meta_object_id": "2010-017A",
        "meta_epoch": "2025-12-16T04:04:20.570592",
        "meta_mean_motion": 13.71649411,
        "meta_eccentricity": 0.00347391,
        "meta_inclination": 82.961,
        "meta_ra_of_asc_node": 24.1921,
        "meta_arg_of_pericenter": 278.1516,
        "meta_mean_anomaly": 141.6221,
        "meta_ephemeris_type": 0,
        "meta_classification_type": "U",
        "meta_norad_cat_id": 36519,
        "meta_element_set_no": 999,
        "meta_rev_at_epoch": 78284,
        "meta_bstar": 4.9978175e-05,
        "meta_mean_motion_dot": 6e-07,
        "meta_mean_motion_ddot": 0,
        "tle_line1": "1 36519U 10017A   25350.16968253  .00000060  00000+0  49978-4 0  9994",
        "tle_line2": "2 36519  82.9610  24.1921 0034739 278.1516 141.6221 13.71649411782840"
      },
      "geometry": {
        "type": "Point",
        "coordinates": [
          47.17321667269762,
          72.7970241865685
        ]
      }
    }
  ]
}